ENVISAT                 
1 27386U 02009A   25324.85379557  .00000149  00000+0  61996-4 0  9990
2 27386  98.3565 276.1531 0001238  81.5277 289.6654 14.38987629243526
IDEFIX & ARIANE 42P R/B 
1 27422U 02021B   25324.55711188  .00000345  00000+0  14790-3 0  9999
2 27422  98.5753 259.5398 0012310 144.2208 215.9802 14.30927078228410
AQUA                    
1 27424U 02022A   25325.20601649  .00001182  00000+0  24701-3 0  9998
2 27424  98.4005 285.7399 0000598  72.8321  41.3413 14.61734931252885
CZ-4B R/B               
1 27432U 02024C   25325.13455301  .00000062  00000+0  55055-4 0  9996
2 27432  98.9031  13.9783 0049616 332.3403  49.5243 14.14521423213892
MIDORI II (ADEOS-II)    
1 27597U 02056A   25324.59249963  .00000326  00000+0  14609-3 0  9999
2 27597  98.7602 277.4367 0000975  23.8637 336.2590 14.29184103194713
H-2A R/B                
1 27601U 02056E   25324.90641382  .00000285  00000+0  11428-3 0  9991
2 27601  98.3031 284.5367 0071235 125.1905 299.8404 14.33652517198526
CZ-4B R/B               
1 28059U 03049C   25324.93183302  .00000410  00000+0  10586-3 0  9992
2 28059  98.6771 310.6739 0047757 202.3926 157.5186 14.54880652170786
CZ-2C R/B               
1 28222U 04012C   25325.11056258  .00032223  00000+0  50292-3 0  9990
2 28222  97.7456  15.9766 0018202 353.8150   6.2875 15.53579818187363
SL-16 R/B               
1 28353U 04021B   25324.62965945  .00000276  00000+0  16851-3 0  9998
2 28353  70.9998 101.3614 0006291 223.3480 136.7148 14.14578901107414
CZ-4B R/B               
1 28415U 04035C   25325.06919554  .00007804  00000+0  29349-3 0  9996
2 28415  97.3631 355.7077 0033555 356.7972   3.3047 15.26887599163327
CZ-2C R/B               
1 28480U 04046B   25324.73072717  .00000184  00000+0  82858-4 0  9993
2 28480  98.1968 241.4791 0140589 116.8588 244.7046 14.26926509 92964
ARIANE 5 R/B            
1 28499U 04049H   25325.09044235  .00000891  00000+0  10544-3 0  9997
2 28499  98.2519 124.5979 0084307 343.8684  15.9848 14.84944699129671
