CCSDS_OMM_VERS = 2.0
CREATION_DATE  = 
ORIGINATOR     = 

OBJECT_NAME    = ENVISAT
OBJECT_ID      = 2002-009A
CENTER_NAME    = EARTH
REF_FRAME      = TEME
TIME_SYSTEM    = UTC
MEAN_ELEMENT_THEORY = SGP/SGP4

EPOCH          = 2025-11-20T20:29:27.937248
MEAN_MOTION    = 14.38987629
ECCENTRICITY   = .00012386
INCLINATION    = 98.3565
RA_OF_ASC_NODE = 276.1531
ARG_OF_PERICENTER = 81.5277
MEAN_ANOMALY   = 289.6654

EPHEMERIS_TYPE = 0
CLASSIFICATION_TYPE = U
NORAD_CAT_ID   = 27386
ELEMENT_SET_NO = 999
REV_AT_EPOCH   = 24352
BSTAR          = .61996247E-4
MEAN_MOTION_DOT = .149E-5
MEAN_MOTION_DDOT = 0

CCSDS_OMM_VERS = 2.0
CREATION_DATE  = 
ORIGINATOR     = 

OBJECT_NAME    = IDEFIX & ARIANE 42P R/B
OBJECT_ID      = 2002-021B
CENTER_NAME    = EARTH
REF_FRAME      = TEME
TIME_SYSTEM    = UTC
MEAN_ELEMENT_THEORY = SGP/SGP4

EPOCH          = 2025-11-20T13:22:14.466432
MEAN_MOTION    = 14.30927078
ECCENTRICITY   = .001231
INCLINATION    = 98.5753
RA_OF_ASC_NODE = 259.5398
ARG_OF_PERICENTER = 144.2208
MEAN_ANOMALY   = 215.9802

EPHEMERIS_TYPE = 0
CLASSIFICATION_TYPE = U
NORAD_CAT_ID   = 27422
ELEMENT_SET_NO = 999
REV_AT_EPOCH   = 22841
BSTAR          = .14790012E-3
MEAN_MOTION_DOT = .345E-5
MEAN_MOTION_DDOT = 0

CCSDS_OMM_VERS = 2.0
CREATION_DATE  = 
ORIGINATOR     = 

OBJECT_NAME    = AQUA
OBJECT_ID      = 2002-022A
CENTER_NAME    = EARTH
REF_FRAME      = TEME
TIME_SYSTEM    = UTC
MEAN_ELEMENT_THEORY = SGP/SGP4

EPOCH          = 2025-11-21T04:56:39.824736
MEAN_MOTION    = 14.61734931
ECCENTRICITY   = .0000598
INCLINATION    = 98.4005
RA_OF_ASC_NODE = 285.7399
ARG_OF_PERICENTER = 72.8321
MEAN_ANOMALY   = 41.3413

EPHEMERIS_TYPE = 0
CLASSIFICATION_TYPE = U
NORAD_CAT_ID   = 27424
ELEMENT_SET_NO = 999
REV_AT_EPOCH   = 25288
BSTAR          = .24701E-3
MEAN_MOTION_DOT = .1182E-4
MEAN_MOTION_DDOT = 0

CCSDS_OMM_VERS = 2.0
CREATION_DATE  = 
ORIGINATOR     = 

OBJECT_NAME    = CZ-4B R/B
OBJECT_ID      = 2002-024C
CENTER_NAME    = EARTH
REF_FRAME      = TEME
TIME_SYSTEM    = UTC
MEAN_ELEMENT_THEORY = SGP/SGP4

EPOCH          = 2025-11-21T03:13:45.380064
MEAN_MOTION    = 14.14521423
ECCENTRICITY   = .0049616
INCLINATION    = 98.9031
RA_OF_ASC_NODE = 13.9783
ARG_OF_PERICENTER = 332.3403
MEAN_ANOMALY   = 49.5243

EPHEMERIS_TYPE = 0
CLASSIFICATION_TYPE = U
NORAD_CAT_ID   = 27432
ELEMENT_SET_NO = 999
REV_AT_EPOCH   = 21389
BSTAR          = .55055E-4
MEAN_MOTION_DOT = .62E-6
MEAN_MOTION_DDOT = 0

CCSDS_OMM_VERS = 2.0
CREATION_DATE  = 
ORIGINATOR     = 

OBJECT_NAME    = MIDORI II (ADEOS-II)
OBJECT_ID      = 2002-056A
CENTER_NAME    = EARTH
REF_FRAME      = TEME
TIME_SYSTEM    = UTC
MEAN_ELEMENT_THEORY = SGP/SGP4

EPOCH          = 2025-11-20T14:13:11.968032
MEAN_MOTION    = 14.29184103
ECCENTRICITY   = .00009755
INCLINATION    = 98.7602
RA_OF_ASC_NODE = 277.4367
ARG_OF_PERICENTER = 23.8637
MEAN_ANOMALY   = 336.2590

EPHEMERIS_TYPE = 0
CLASSIFICATION_TYPE = U
NORAD_CAT_ID   = 27597
ELEMENT_SET_NO = 999
REV_AT_EPOCH   = 19471
BSTAR          = .14608516E-3
MEAN_MOTION_DOT = .326E-5
MEAN_MOTION_DDOT = 0

CCSDS_OMM_VERS = 2.0
CREATION_DATE  = 
ORIGINATOR     = 

OBJECT_NAME    = H-2A R/B
OBJECT_ID      = 2002-056E
CENTER_NAME    = EARTH
REF_FRAME      = TEME
TIME_SYSTEM    = UTC
MEAN_ELEMENT_THEORY = SGP/SGP4

EPOCH          = 2025-11-20T21:45:14.154048
MEAN_MOTION    = 14.33652517
ECCENTRICITY   = .0071235
INCLINATION    = 98.3031
RA_OF_ASC_NODE = 284.5367
ARG_OF_PERICENTER = 125.1905
MEAN_ANOMALY   = 299.8404

EPHEMERIS_TYPE = 0
CLASSIFICATION_TYPE = U
NORAD_CAT_ID   = 27601
ELEMENT_SET_NO = 999
REV_AT_EPOCH   = 19852
BSTAR          = .11428E-3
MEAN_MOTION_DOT = .285E-5
MEAN_MOTION_DDOT = 0

CCSDS_OMM_VERS = 2.0
CREATION_DATE  = 
ORIGINATOR     = 

OBJECT_NAME    = CZ-4B R/B
OBJECT_ID      = 2003-049C
CENTER_NAME    = EARTH
REF_FRAME      = TEME
TIME_SYSTEM    = UTC
MEAN_ELEMENT_THEORY = SGP/SGP4

EPOCH          = 2025-11-20T22:21:50.372928
MEAN_MOTION    = 14.54880652
ECCENTRICITY   = .0047757
INCLINATION    = 98.6771
RA_OF_ASC_NODE = 310.6739
ARG_OF_PERICENTER = 202.3926
MEAN_ANOMALY   = 157.5186

EPHEMERIS_TYPE = 0
CLASSIFICATION_TYPE = U
NORAD_CAT_ID   = 28059
ELEMENT_SET_NO = 999
REV_AT_EPOCH   = 17078
BSTAR          = .10586E-3
MEAN_MOTION_DOT = .41E-5
MEAN_MOTION_DDOT = 0

CCSDS_OMM_VERS = 2.0
CREATION_DATE  = 
ORIGINATOR     = 

OBJECT_NAME    = CZ-2C R/B
OBJECT_ID      = 2004-012C
CENTER_NAME    = EARTH
REF_FRAME      = TEME
TIME_SYSTEM    = UTC
MEAN_ELEMENT_THEORY = SGP/SGP4

EPOCH          = 2025-11-21T02:39:12.606912
MEAN_MOTION    = 15.53579818
ECCENTRICITY   = .0018202
INCLINATION    = 97.7456
RA_OF_ASC_NODE = 15.9766
ARG_OF_PERICENTER = 353.8150
MEAN_ANOMALY   = 6.2875

EPHEMERIS_TYPE = 0
CLASSIFICATION_TYPE = U
NORAD_CAT_ID   = 28222
ELEMENT_SET_NO = 999
REV_AT_EPOCH   = 18736
BSTAR          = .50292E-3
MEAN_MOTION_DOT = .32223E-3
MEAN_MOTION_DDOT = 0

CCSDS_OMM_VERS = 2.0
CREATION_DATE  = 
ORIGINATOR     = 

OBJECT_NAME    = SL-16 R/B
OBJECT_ID      = 2004-021B
CENTER_NAME    = EARTH
REF_FRAME      = TEME
TIME_SYSTEM    = UTC
MEAN_ELEMENT_THEORY = SGP/SGP4

EPOCH          = 2025-11-20T15:06:42.576480
MEAN_MOTION    = 14.14578901
ECCENTRICITY   = .00062916
INCLINATION    = 70.9998
RA_OF_ASC_NODE = 101.3614
ARG_OF_PERICENTER = 223.3480
MEAN_ANOMALY   = 136.7148

EPHEMERIS_TYPE = 0
CLASSIFICATION_TYPE = U
NORAD_CAT_ID   = 28353
ELEMENT_SET_NO = 999
REV_AT_EPOCH   = 10741
BSTAR          = .1685144E-3
MEAN_MOTION_DOT = .276E-5
MEAN_MOTION_DDOT = 0

CCSDS_OMM_VERS = 2.0
CREATION_DATE  = 
ORIGINATOR     = 

OBJECT_NAME    = CZ-4B R/B
OBJECT_ID      = 2004-035C
CENTER_NAME    = EARTH
REF_FRAME      = TEME
TIME_SYSTEM    = UTC
MEAN_ELEMENT_THEORY = SGP/SGP4

EPOCH          = 2025-11-21T01:39:38.494656
MEAN_MOTION    = 15.26887599
ECCENTRICITY   = .0033555
INCLINATION    = 97.3631
RA_OF_ASC_NODE = 355.7077
ARG_OF_PERICENTER = 356.7972
MEAN_ANOMALY   = 3.3047

EPHEMERIS_TYPE = 0
CLASSIFICATION_TYPE = U
NORAD_CAT_ID   = 28415
ELEMENT_SET_NO = 999
REV_AT_EPOCH   = 16332
BSTAR          = .29349E-3
MEAN_MOTION_DOT = .7804E-4
MEAN_MOTION_DDOT = 0

CCSDS_OMM_VERS = 2.0
CREATION_DATE  = 
ORIGINATOR     = 

OBJECT_NAME    = CZ-2C R/B
OBJECT_ID      = 2004-046B
CENTER_NAME    = EARTH
REF_FRAME      = TEME
TIME_SYSTEM    = UTC
MEAN_ELEMENT_THEORY = SGP/SGP4

EPOCH          = 2025-11-20T17:32:14.827488
MEAN_MOTION    = 14.26926509
ECCENTRICITY   = .01405891
INCLINATION    = 98.1968
RA_OF_ASC_NODE = 241.4791
ARG_OF_PERICENTER = 116.8588
MEAN_ANOMALY   = 244.7046

EPHEMERIS_TYPE = 0
CLASSIFICATION_TYPE = U
NORAD_CAT_ID   = 28480
ELEMENT_SET_NO = 999
REV_AT_EPOCH   = 9296
BSTAR          = .82857977E-4
MEAN_MOTION_DOT = .184E-5
MEAN_MOTION_DDOT = 0

CCSDS_OMM_VERS = 2.0
CREATION_DATE  = 
ORIGINATOR     = 

OBJECT_NAME    = ARIANE 5 R/B
OBJECT_ID      = 2004-049H
CENTER_NAME    = EARTH
REF_FRAME      = TEME
TIME_SYSTEM    = UTC
MEAN_ELEMENT_THEORY = SGP/SGP4

EPOCH          = 2025-11-21T02:10:14.219040
MEAN_MOTION    = 14.84944699
ECCENTRICITY   = .0084307
INCLINATION    = 98.2519
RA_OF_ASC_NODE = 124.5979
ARG_OF_PERICENTER = 343.8684
MEAN_ANOMALY   = 15.9848

EPHEMERIS_TYPE = 0
CLASSIFICATION_TYPE = U
NORAD_CAT_ID   = 28499
ELEMENT_SET_NO = 999
REV_AT_EPOCH   = 12967
BSTAR          = .10544E-3
MEAN_MOTION_DOT = .891E-5
MEAN_MOTION_DDOT = 0

